{
  "norad_id": 66361,
  "name": "STARLINK-35813",
  "history": [
    {
      "epoch": "2026-03-28T14:18:25.658784Z",
      "apogee_km": 475.4193036758179,
      "perigee_km": 474.89708258210067,
      "latitude_deg": -3.7779774210928845e-05,
      "longitude_deg": 103.7776515978994,
      "height_km": 476.1104929012201,
      "semi_major_axis_km": 6853.295193128959,
      "eccentricity": 3.81e-05,
      "inclination_deg": 53.1587,
      "raan_deg": 144.3989,
      "arg_perigee_deg": 101.7512,
      "mean_anomaly_deg": 258.3531,
      "mean_motion_rev_day": 15.30219049
    },
    {
      "epoch": "2026-03-30T10:11:55.699872Z",
      "apogee_km": 476.3350044818317,
      "perigee_km": 474.0374963953536,
      "latitude_deg": -3.787305007333462e-05,
      "longitude_deg": 155.1008140035511,
      "height_km": 475.84317644310005,
      "semi_major_axis_km": 6853.323250438592,
      "eccentricity": 0.00016762,
      "inclination_deg": 53.1593,
      "raan_deg": 135.8998,
      "arg_perigee_deg": 77.9116,
      "mean_anomaly_deg": 282.2072,
      "mean_motion_rev_day": 15.30209652
    }
  ]
}